{"type": "FeatureCollection", "features": [ {"type": "Feature", "properties": {"norad_id": 31313, "name": "FENGYUN 1C DEB", "group": "fengyun-1c-debris", "lat": -29.116032676985412, "lon": -110.7869315268918, "alt_km": 844.364875602454, "timestamp": "2025-12-06T09:34:17.195417+00:00", "meta": {"OBJECT_NAME": "FENGYUN 1C DEB", "OBJECT_ID": "1999-025BPR", "EPOCH": "2025-12-05T05:00:28.756224", "MEAN_MOTION": 14.22258211, "ECCENTRICITY": 0.00441977, "INCLINATION": 99.0148, "RA_OF_ASC_NODE": 242.9241, "ARG_OF_PERICENTER": 202.9154, "MEAN_ANOMALY": 157.0051, "EPHEMERIS_TYPE": 0, "CLASSIFICATION_TYPE": "U", "NORAD_CAT_ID": 31313, "ELEMENT_SET_NO": 999, "REV_AT_EPOCH": 96955, "BSTAR": 0.00053562898, "MEAN_MOTION_DOT": 1.155e-05, "MEAN_MOTION_DDOT": 0}, "tle": {"line1": "1 31313U 99025BPR 25339.20866616  .00001155  00000+0  53563-3 0  9999", "line2": "2 31313  99.0148 242.9241 0044197 202.9154 157.0051 14.22258211969557"}}, "geometry": {"type": "Point", "coordinates": [-110.7869315268918, -29.116032676985412]}}, {"type": "Feature", "properties": {"norad_id": 31314, "name": "FENGYUN 1C DEB", "group": "fengyun-1c-debris", "lat": 54.713817187735884, "lon": -38.09207674499452, "alt_km": 827.7389338377598, "timestamp": "2025-12-06T09:34:17.195427+00:00", "meta": {"OBJECT_NAME": "FENGYUN 1C DEB", "OBJECT_ID": "1999-025BPS", "EPOCH": "2025-12-04T06:02:04.117920", "MEAN_MOTION": 14.0491099, "ECCENTRICITY": 0.0079252, "INCLINATION": 98.8219, "RA_OF_ASC_NODE": 332.4967, "ARG_OF_PERICENTER": 21.1636, "MEAN_ANOMALY": 339.278, "EPHEMERIS_TYPE": 0, "CLASSIFICATION_TYPE": "U", "NORAD_CAT_ID": 31314, "ELEMENT_SET_NO": 999, "REV_AT_EPOCH": 60695, "BSTAR": 0.00048284, "MEAN_MOTION_DOT": 7.55e-06, "MEAN_MOTION_DDOT": 0}, "tle": {"line1": "1 31314U 99025BPS 25338.25143655  .00000755  00000+0  48284-3 0  9994", "line2": "2 31314  98.8219 332.4967 0079252  21.1636 339.2780 14.04910990606954"}}, "geometry": {"type": "Point", "coordinates": [-38.09207674499452, 54.713817187735884]}}, {"type": "Feature", "properties": {"norad_id": 31319, "name": "FENGYUN 1C DEB", "group": "fengyun-1c-debris", "lat": -42.94860859218851, "lon": 51.35029008647731, "alt_km": 1045.9555103859775, "timestamp": "2025-12-06T09:34:17.195437+00:00", "meta": {"OBJECT_NAME": "FENGYUN 1C DEB", "OBJECT_ID": "1999-025BPX", "EPOCH": "2025-12-05T12:24:34.242336", "MEAN_MOTION": 13.75824695, "ECCENTRICITY": 0.01705699, "INCLINATION": 98.8308, "RA_OF_ASC_NODE": 238.8527, "ARG_OF_PERICENTER": 106.1002, "MEAN_ANOMALY": 70.781, "EPHEMERIS_TYPE": 0, "CLASSIFICATION_TYPE": "U", "NORAD_CAT_ID": 31319, "ELEMENT_SET_NO": 999, "REV_AT_EPOCH": 93588, "BSTAR": 0.00028183886, "MEAN_MOTION_DOT": 2.65e-06, "MEAN_MOTION_DDOT": 0}, "tle": {"line1": "1 31319U 99025BPX 25339.51706299  .00000265  00000+0  28184-3 0  9991", "line2": "2 31319  98.8308 238.8527 0170569 106.1002  70.7810 13.75824695935884"}}, "geometry": {"type": "Point", "coordinates": [51.35029008647731, -42.94860859218851]}}, {"type": "Feature", "properties": {"norad_id": 31321, "name": "FENGYUN 1C DEB", "group": "fengyun-1c-debris", "lat": 7.473078340107243, "lon": 58.258626585216604, "alt_km": 869.2197894924557, "timestamp": "2025-12-06T09:34:17.195447+00:00", "meta": {"OBJECT_NAME": "FENGYUN 1C DEB", "OBJECT_ID": "1999-025BPZ", "EPOCH": "2025-11-28T23:11:37.489632", "MEAN_MOTION": 14.13809948, "ECCENTRICITY": 0.00293651, "INCLINATION": 98.7348, "RA_OF_ASC_NODE": 52.1537, "ARG_OF_PERICENTER": 217.1862, "MEAN_ANOMALY": 142.7277, "EPHEMERIS_TYPE": 0, "CLASSIFICATION_TYPE": "U", "NORAD_CAT_ID": 31321, "ELEMENT_SET_NO": 999, "REV_AT_EPOCH": 57189, "BSTAR": 0.00017233355, "MEAN_MOTION_DOT": 2.84e-06, "MEAN_MOTION_DDOT": 0}, "tle": {"line1": "1 31321U 99025BPZ 25332.96640613  .00000284  00000+0  17233-3 0  9997", "line2": "2 31321  98.7348  52.1537 0029365 217.1862 142.7277 14.13809948571893"}}, "geometry": {"type": "Point", "coordinates": [58.258626585216604, 7.473078340107243]}}, {"type": "Feature", "properties": {"norad_id": 31322, "name": "FENGYUN 1C DEB", "group": "fengyun-1c-debris", "lat": -70.77570366930331, "lon": -160.8079418645753, "alt_km": 1117.3521782427715, "timestamp": "2025-12-06T09:34:17.195457+00:00", "meta": {"OBJECT_NAME": "FENGYUN 1C DEB", "OBJECT_ID": "1999-025BQA", "EPOCH": "2025-12-02T09:57:05.346144", "MEAN_MOTION": 13.72990391, "ECCENTRICITY": 0.0239007, "INCLINATION": 98.5749, "RA_OF_ASC_NODE": 41.2566, "ARG_OF_PERICENTER": 37.8458, "MEAN_ANOMALY": 334.6813, "EPHEMERIS_TYPE": 0, "CLASSIFICATION_TYPE": "U", "NORAD_CAT_ID": 31322, "ELEMENT_SET_NO": 999, "REV_AT_EPOCH": 62134, "BSTAR": 0.00025402374, "MEAN_MOTION_DOT": 2.51e-06, "MEAN_MOTION_DDOT": 0}, "tle": {"line1": "1 31322U 99025BQA 25336.41464521  .00000251  00000+0  25402-3 0  9995", "line2": "2 31322  98.5749  41.2566 0239007  37.8458 334.6813 13.72990391621343"}}, "geometry": {"type": "Point", "coordinates": [-160.8079418645753, -70.77570366930331]}}, {"type": "Feature", "properties": {"norad_id": 31323, "name": "FENGYUN 1C DEB", "group": "fengyun-1c-debris", "lat": 6.735868955006327, "lon": 17.256222445677864, "alt_km": 802.2735387482244, "timestamp": "2025-12-06T09:34:17.195467+00:00", "meta": {"OBJECT_NAME": "FENGYUN 1C DEB", "OBJECT_ID": "1999-025BQB", "EPOCH": "2025-12-05T21:45:51.609312", "MEAN_MOTION": 14.27517995, "ECCENTRICITY": 0.00318863, "INCLINATION": 99.4204, "RA_OF_ASC_NODE": 17.85, "ARG_OF_PERICENTER": 99.214, "MEAN_ANOMALY": 261.2647, "EPHEMERIS_TYPE": 0, "CLASSIFICATION_TYPE": "U", "NORAD_CAT_ID": 31323, "ELEMENT_SET_NO": 999, "REV_AT_EPOCH": 63883, "BSTAR": 0.0025505728, "MEAN_MOTION_DOT": 6.258e-05, "MEAN_MOTION_DDOT": 0}, "tle": {"line1": "1 31323U 99025BQB 25339.90684733  .00006258  00000+0  25506-2 0  9999", "line2": "2 31323  99.4204  17.8500 0031886  99.2140 261.2647 14.27517995638830"}}, "geometry": {"type": "Point", "coordinates": [17.256222445677864, 6.735868955006327]}}, {"type": "Feature", "properties": {"norad_id": 31324, "name": "FENGYUN 1C DEB", "group": "fengyun-1c-debris", "lat": 49.64855079439704, "lon": -109.16566821320387, "alt_km": 837.4767366050519, "timestamp": "2025-12-06T09:34:17.195477+00:00", "meta": {"OBJECT_NAME": "FENGYUN 1C DEB", "OBJECT_ID": "1999-025BQC", "EPOCH": "2025-12-04T01:19:10.557120", "MEAN_MOTION": 14.1468472, "ECCENTRICITY": 0.00496418, "INCLINATION": 99.1223, "RA_OF_ASC_NODE": 259.3417, "ARG_OF_PERICENTER": 329.0254, "MEAN_ANOMALY": 30.7993, "EPHEMERIS_TYPE": 0, "CLASSIFICATION_TYPE": "U", "NORAD_CAT_ID": 31324, "ELEMENT_SET_NO": 999, "REV_AT_EPOCH": 96363, "BSTAR": 0.00033792063, "MEAN_MOTION_DOT": 6.11e-06, "MEAN_MOTION_DDOT": 0}, "tle": {"line1": "1 31324U 99025BQC 25338.05498330  .00000611  00000+0  33792-3 0  9995", "line2": "2 31324  99.1223 259.3417 0049641 329.0254  30.7993 14.14684720963636"}}, "geometry": {"type": "Point", "coordinates": [-109.16566821320387, 49.64855079439704]}}, {"type": "Feature", "properties": {"norad_id": 31325, "name": "FENGYUN 1C DEB", "group": "fengyun-1c-debris", "lat": -80.63149764282839, "lon": 148.16418579914048, "alt_km": 801.4780989096762, "timestamp": "2025-12-06T09:34:17.195487+00:00", "meta": {"OBJECT_NAME": "FENGYUN 1C DEB", "OBJECT_ID": "1999-025BQD", "EPOCH": "2025-11-24T23:23:39.646752", "MEAN_MOTION": 14.16672096, "ECCENTRICITY": 0.00707168, "INCLINATION": 98.9917, "RA_OF_ASC_NODE": 62.9425, "ARG_OF_PERICENTER": 270.4358, "MEAN_ANOMALY": 88.8713, "EPHEMERIS_TYPE": 0, "CLASSIFICATION_TYPE": "U", "NORAD_CAT_ID": 31325, "ELEMENT_SET_NO": 999, "REV_AT_EPOCH": 59526, "BSTAR": 0.0025582335, "MEAN_MOTION_DOT": 5.193e-05, "MEAN_MOTION_DDOT": 0}, "tle": {"line1": "1 31325U 99025BQD 25328.97476443  .00005193  00000+0  25582-2 0  9994", "line2": "2 31325  98.9917  62.9425 0070716 270.4358  88.8713 14.16672096595261"}}, "geometry": {"type": "Point", "coordinates": [148.16418579914048, -80.63149764282839]}}, {"type": "Feature", "properties": {"norad_id": 31326, "name": "FENGYUN 1C DEB", "group": "fengyun-1c-debris", "lat": 30.644958301506815, "lon": 46.796750017785456, "alt_km": 582.8462953006092, "timestamp": "2025-12-06T09:34:17.195497+00:00", "meta": {"OBJECT_NAME": "FENGYUN 1C DEB", "OBJECT_ID": "1999-025BQE", "EPOCH": "2025-11-25T14:42:32.298048", "MEAN_MOTION": 14.96360134, "ECCENTRICITY": 0.00187059, "INCLINATION": 99.013, "RA_OF_ASC_NODE": 208.9742, "ARG_OF_PERICENTER": 1.9794, "MEAN_ANOMALY": 358.1494, "EPHEMERIS_TYPE": 0, "CLASSIFICATION_TYPE": "U", "NORAD_CAT_ID": 31326, "ELEMENT_SET_NO": 999, "REV_AT_EPOCH": 73489, "BSTAR": 0.0084230344, "MEAN_MOTION_DOT": 0.00096893, "MEAN_MOTION_DDOT": 0}, "tle": {"line1": "1 31326U 99025BQE 25329.61287382  .00096893  00000+0  84230-2 0  9991", "line2": "2 31326  99.0130 208.9742 0018705   1.9794 358.1494 14.96360134734894"}}, "geometry": {"type": "Point", "coordinates": [46.796750017785456, 30.644958301506815]}}, {"type": "Feature", "properties": {"norad_id": 31327, "name": "FENGYUN 1C DEB", "group": "fengyun-1c-debris", "lat": 50.4819619349102, "lon": -30.37180576967769, "alt_km": 473.30877321585194, "timestamp": "2025-12-06T09:34:17.195507+00:00", "meta": {"OBJECT_NAME": "FENGYUN 1C DEB", "OBJECT_ID": "1999-025BQF", "EPOCH": "2025-12-02T05:09:54.181152", "MEAN_MOTION": 15.09995749, "ECCENTRICITY": 0.0089281, "INCLINATION": 98.9847, "RA_OF_ASC_NODE": 335.7853, "ARG_OF_PERICENTER": 44.0162, "MEAN_ANOMALY": 316.8127, "EPHEMERIS_TYPE": 0, "CLASSIFICATION_TYPE": "U", "NORAD_CAT_ID": 31327, "ELEMENT_SET_NO": 999, "REV_AT_EPOCH": 99941, "BSTAR": 0.0018104, "MEAN_MOTION_DOT": 0.00032362, "MEAN_MOTION_DDOT": 0}, "tle": {"line1": "1 31327U 99025BQF 25336.21521043  .00032362  00000+0  18104-2 0  9999", "line2": "2 31327  98.9847 335.7853 0089281  44.0162 316.8127 15.09995749999410"}}, "geometry": {"type": "Point", "coordinates": [-30.37180576967769, 50.4819619349102]}}]}